[
  {
    "ORDINAL": "1",
    "COMMENT": "GENERATED VIA SPACETRACK.ORG API",
    "ORIGINATOR": "18 SPCS",
    "NORAD_CAT_ID": "93",
    "OBJECT_NAME": "SPUTNIK 9 DEB",
    "OBJECT_TYPE": "DEBRIS",
    "CLASSIFICATION_TYPE": "U",
    "INTLDES": "61008C",
    "EPOCH": "1961-03-09 13:41:47",
    "EPOCH_MICROSECONDS": "546880",
    "MEAN_MOTION": "16.37479598",
    "ECCENTRICITY": "0",
    "INCLINATION": "64.9299",
    "RA_OF_ASC_NODE": "298.7499",
    "ARG_OF_PERICENTER": "117.5648",
    "MEAN_ANOMALY": "242.4351",
    "EPHEMERIS_TYPE": "0",
    "ELEMENT_SET_NO": "999",
    "REV_AT_EPOCH": "5",
    "BSTAR": "0",
    "MEAN_MOTION_DOT": "0",
    "MEAN_MOTION_DDOT": "0",
    "FILE": "33907",
    "TLE_LINE0": "0 SPUTNIK 9 DEB",
    "TLE_LINE1": "1 00093U 61008  C 61068.57068920  .00000000 +00000-0 +00000-0 0  9995",
    "TLE_LINE2": "2 00093 064.9299 298.7499 0000000 117.5648 242.4351 16.37479598000058",
    "OBJECT_ID": "1961-008C",
    "OBJECT_NUMBER": "93",
    "SEMIMAJOR_AXIS": "6550.657",
    "PERIOD": "87.940",
    "APOGEE": "172.522",
    "PERIGEE": "172.522",
    "DECAYED": "1"
  },
  {
    "ORDINAL": "1",
    "COMMENT": "GENERATED VIA SPACETRACK.ORG API",
    "ORIGINATOR": "18 SPCS",
    "NORAD_CAT_ID": "95",
    "OBJECT_NAME": "SPUTNIK 10",
    "OBJECT_TYPE": "PAYLOAD",
    "CLASSIFICATION_TYPE": "U",
    "INTLDES": "61009A",
    "EPOCH": "1961-03-25 07:13:48",
    "EPOCH_MICROSECONDS": "780191",
    "MEAN_MOTION": "16.36297684",
    "ECCENTRICITY": "0",
    "INCLINATION": "64.9999",
    "RA_OF_ASC_NODE": "305.736",
    "ARG_OF_PERICENTER": "42.2018",
    "MEAN_ANOMALY": "317.7981",
    "EPHEMERIS_TYPE": "0",
    "ELEMENT_SET_NO": "999",
    "REV_AT_EPOCH": "1",
    "BSTAR": "0",
    "MEAN_MOTION_DOT": "0.00304554",
    "MEAN_MOTION_DDOT": "0",
    "FILE": "33907",
    "TLE_LINE0": "0 SPUTNIK 10",
    "TLE_LINE1": "1 00095U 61009  A 61084.30125903  .00304554 +00000-0 +00000-0 0  9993",
    "TLE_LINE2": "2 00095 064.9999 305.7360 0000000 042.2018 317.7981 16.36297684000012",
    "OBJECT_ID": "1961-009A",
    "OBJECT_NUMBER": "95",
    "SEMIMAJOR_AXIS": "6553.811",
    "PERIOD": "88.004",
    "APOGEE": "175.676",
    "PERIGEE": "175.676",
    "DECAYED": "1"
  },
  {
    "ORDINAL": "1",
    "COMMENT": "GENERATED VIA SPACETRACK.ORG API",
    "ORIGINATOR": "18 SPCS",
    "NORAD_CAT_ID": "96",
    "OBJECT_NAME": "SL-3 R/B",
    "OBJECT_TYPE": "ROCKET BODY",
    "CLASSIFICATION_TYPE": "U",
    "INTLDES": "61009B",
    "EPOCH": "1961-03-25 21:55:16",
    "EPOCH_MICROSECONDS": "414751",
    "MEAN_MOTION": "16.39704983",
    "ECCENTRICITY": "0.0048232",
    "INCLINATION": "65",
    "RA_OF_ASC_NODE": "304.102",
    "ARG_OF_PERICENTER": "41.7292",
    "MEAN_ANOMALY": "318.4575",
    "EPHEMERIS_TYPE": "0",
    "ELEMENT_SET_NO": "999",
    "REV_AT_EPOCH": "11",
    "BSTAR": "0",
    "MEAN_MOTION_DOT": "0.1033931",
    "MEAN_MOTION_DDOT": "0",
    "FILE": "33907",
    "TLE_LINE0": "0 SL-3 R/B",
    "TLE_LINE1": "1 00096U 61009  B 61084.91338443  .10339310 +00000-0 +00000-0 0  9995",
    "TLE_LINE2": "2 00096 065.0000 304.1020 0048232 041.7292 318.4575 16.39704983000117",
    "OBJECT_ID": "1961-009B",
    "OBJECT_NUMBER": "96",
    "SEMIMAJOR_AXIS": "6544.729",
    "PERIOD": "87.821",
    "APOGEE": "198.160",
    "PERIGEE": "135.027",
    "DECAYED": "1"
  },
  {
    "ORDINAL": "1",
    "COMMENT": "GENERATED VIA SPACETRACK.ORG API",
    "ORIGINATOR": "18 SPCS",
    "NORAD_CAT_ID": "97",
    "OBJECT_NAME": "SL-3 DEB",
    "OBJECT_TYPE": "DEBRIS",
    "CLASSIFICATION_TYPE": "U",
    "INTLDES": "61009C",
    "EPOCH": "1961-03-25 14:37:56",
    "EPOCH_MICROSECONDS": "36640",
    "MEAN_MOTION": "16.2649511",
    "ECCENTRICITY": "0.0053086",
    "INCLINATION": "65",
    "RA_OF_ASC_NODE": "305.2646",
    "ARG_OF_PERICENTER": "41.8763",
    "MEAN_ANOMALY": "318.3297",
    "EPHEMERIS_TYPE": "0",
    "ELEMENT_SET_NO": "999",
    "REV_AT_EPOCH": "6",
    "BSTAR": "0",
    "MEAN_MOTION_DOT": "0.00299049",
    "MEAN_MOTION_DDOT": "0",
    "FILE": "33907",
    "TLE_LINE0": "0 SL-3 DEB",
    "TLE_LINE1": "1 00097U 61009  C 61084.60967635  .00299049 +00000-0 +00000-0 0  9996",
    "TLE_LINE2": "2 00097 065.0000 305.2646 0053086 041.8763 318.3297 16.26495110000060",
    "OBJECT_ID": "1961-009C",
    "OBJECT_NUMBER": "97",
    "SEMIMAJOR_AXIS": "6580.117",
    "PERIOD": "88.534",
    "APOGEE": "236.913",
    "PERIGEE": "167.051",
    "DECAYED": "1"
  },
  {
    "ORDINAL": "1",
    "COMMENT": "GENERATED VIA SPACETRACK.ORG API",
    "ORIGINATOR": "18 SPCS",
    "NORAD_CAT_ID": "99",
    "OBJECT_NAME": "THOR ABLESTAR DEB",
    "OBJECT_TYPE": "DEBRIS",
    "CLASSIFICATION_TYPE": "U",
    "INTLDES": "60003D",
    "EPOCH": "1979-07-05 20:12:10",
    "EPOCH_MICROSECONDS": "621439",
    "MEAN_MOTION": "16.18346998",
    "ECCENTRICITY": "0.0004728",
    "INCLINATION": "51.2611",
    "RA_OF_ASC_NODE": "217.548",
    "ARG_OF_PERICENTER": "97.4296",
    "MEAN_ANOMALY": "263.333",
    "EPHEMERIS_TYPE": "0",
    "ELEMENT_SET_NO": "999",
    "REV_AT_EPOCH": "5808",
    "BSTAR": "0.0009806",
    "MEAN_MOTION_DOT": "0.0164673",
    "MEAN_MOTION_DDOT": "0.0024659",
    "FILE": "34037",
    "TLE_LINE0": "0 THOR ABLESTAR DEB",
    "TLE_LINE1": "1 00099U 60003  D 79186.84178960  .01646730 +24659-2 +98060-3 0  9992",
    "TLE_LINE2": "2 00099 051.2611 217.5480 0004728 097.4296 263.3330 16.18346998058087",
    "OBJECT_ID": "1960-003D",
    "OBJECT_NUMBER": "99",
    "SEMIMAJOR_AXIS": "6602.185",
    "PERIOD": "88.980",
    "APOGEE": "227.171",
    "PERIGEE": "220.928",
    "DECAYED": "1"
  },
  {
    "ORDINAL": "1",
    "COMMENT": "GENERATED VIA SPACETRACK.ORG API",
    "ORIGINATOR": "18 SPCS",
    "NORAD_CAT_ID": "100",
    "OBJECT_NAME": "DISCOVERER 23",
    "OBJECT_TYPE": "PAYLOAD",
    "CLASSIFICATION_TYPE": "U",
    "INTLDES": "61011A",
    "EPOCH": "1962-04-08 07:08:58",
    "EPOCH_MICROSECONDS": "988543",
    "MEAN_MOTION": "16.09519096",
    "ECCENTRICITY": "0.0030504",
    "INCLINATION": "82.227",
    "RA_OF_ASC_NODE": "159.1991",
    "ARG_OF_PERICENTER": "264.6516",
    "MEAN_ANOMALY": "94.9985",
    "EPHEMERIS_TYPE": "0",
    "ELEMENT_SET_NO": "999",
    "REV_AT_EPOCH": "5672",
    "BSTAR": "0",
    "MEAN_MOTION_DOT": "0.00498777",
    "MEAN_MOTION_DDOT": "0",
    "FILE": "33908",
    "TLE_LINE0": "0 DISCOVERER 23",
    "TLE_LINE1": "1 00100U 61011  A 62098.29790496  .00498777 +00000-0 +00000-0 0  9993",
    "TLE_LINE2": "2 00100 082.2270 159.1991 0030504 264.6516 094.9985 16.09519096056721",
    "OBJECT_ID": "1961-011A",
    "OBJECT_NUMBER": "100",
    "SEMIMAJOR_AXIS": "6626.304",
    "PERIOD": "89.468",
    "APOGEE": "268.382",
    "PERIGEE": "227.956",
    "DECAYED": "1"
  },
  {
    "ORDINAL": "1",
    "COMMENT": "GENERATED VIA SPACETRACK.ORG API",
    "ORIGINATOR": "18 SPCS",
    "NORAD_CAT_ID": "101",
    "OBJECT_NAME": "THOR ABLE DEB (YO)",
    "OBJECT_TYPE": "DEBRIS",
    "CLASSIFICATION_TYPE": "U",
    "INTLDES": "60002C",
    "EPOCH": "1983-04-16 19:35:21",
    "EPOCH_MICROSECONDS": "675840",
    "MEAN_MOTION": "16.35832332",
    "ECCENTRICITY": "0.0000398",
    "INCLINATION": "48.4727",
    "RA_OF_ASC_NODE": "27.999",
    "ARG_OF_PERICENTER": "270.9061",
    "MEAN_ANOMALY": "249.8269",
    "EPHEMERIS_TYPE": "0",
    "ELEMENT_SET_NO": "999",
    "REV_AT_EPOCH": "24918",
    "BSTAR": "0.0011294",
    "MEAN_MOTION_DOT": "0.09665547",
    "MEAN_MOTION_DDOT": "0.000057417",
    "FILE": "34350",
    "TLE_LINE0": "0 THOR ABLE DEB (YO)",
    "TLE_LINE1": "1 00101U 60002  C 83106.81622310  .09665547 +57417-4 +11294-2 0  9990",
    "TLE_LINE2": "2 00101 048.4727 027.9990 0000398 270.9061 249.8269 16.35832332249187",
    "OBJECT_ID": "1960-002C",
    "OBJECT_NUMBER": "101",
    "SEMIMAJOR_AXIS": "6555.054",
    "PERIOD": "88.029",
    "APOGEE": "177.180",
    "PERIGEE": "176.658",
    "DECAYED": "1"
  },
  {
    "ORDINAL": "1",
    "COMMENT": "GENERATED VIA SPACETRACK.ORG API",
    "ORIGINATOR": "18 SPCS",
    "NORAD_CAT_ID": "102",
    "OBJECT_NAME": "DISCOVERER 23 CAPSULE",
    "OBJECT_TYPE": "PAYLOAD",
    "CLASSIFICATION_TYPE": "U",
    "INTLDES": "61011B",
    "EPOCH": "1962-05-21 13:41:48",
    "EPOCH_MICROSECONDS": "703775",
    "MEAN_MOTION": "16.31367068",
    "ECCENTRICITY": "0",
    "INCLINATION": "81.88",
    "RA_OF_ASC_NODE": "137.0465",
    "ARG_OF_PERICENTER": "256.3089",
    "MEAN_ANOMALY": "108.2152",
    "EPHEMERIS_TYPE": "0",
    "ELEMENT_SET_NO": "999",
    "REV_AT_EPOCH": "6060",
    "BSTAR": "0",
    "MEAN_MOTION_DOT": "0.02778262",
    "MEAN_MOTION_DDOT": "0",
    "FILE": "33908",
    "TLE_LINE0": "0 DISCOVERER 23 CAPSULE",
    "TLE_LINE1": "1 00102U 61011  B 62141.57070259  .02778262 +00000-0 +00000-0 0  9995",
    "TLE_LINE2": "2 00102 081.8800 137.0465 0000000 256.3089 108.2152 16.31367068060601",
    "OBJECT_ID": "1961-011B",
    "OBJECT_NUMBER": "102",
    "SEMIMAJOR_AXIS": "6567.010",
    "PERIOD": "88.270",
    "APOGEE": "188.875",
    "PERIGEE": "188.875",
    "DECAYED": "1"
  }
]
